[{"OBJECT_NAME":"STARLINK-1716","OBJECT_ID":"2020-073C","EPOCH":"2026-03-10T00:00:02.999808","MEAN_MOTION":15.64601667,"ECCENTRICITY":0.00063571,"INCLINATION":53.0437,"RA_OF_ASC_NODE":199.6239,"ARG_OF_PERICENTER":339.4372,"MEAN_ANOMALY":32.4573,"EPHEMERIS_TYPE":0,"CLASSIFICATION_TYPE":"U","NORAD_CAT_ID":46672,"ELEMENT_SET_NO":999,"REV_AT_EPOCH":594,"BSTAR":1.2024739e-5,"MEAN_MOTION_DOT":6.3e-6,"MEAN_MOTION_DDOT":0},{"OBJECT_NAME":"STARLINK-1931","OBJECT_ID":"2020-074BD","EPOCH":"2026-03-09T21:13:00.539328","MEAN_MOTION":15.65028532,"ECCENTRICITY":0.00014438,"INCLINATION":53.0448,"RA_OF_ASC_NODE":282.2511,"ARG_OF_PERICENTER":17.7174,"MEAN_ANOMALY":342.3891,"EPHEMERIS_TYPE":0,"CLASSIFICATION_TYPE":"U","NORAD_CAT_ID":46790,"ELEMENT_SET_NO":999,"REV_AT_EPOCH":29724,"BSTAR":0.0009294565,"MEAN_MOTION_DOT":0.00093618,"MEAN_MOTION_DDOT":0}]
